COSMOS 1933             
1 18958U 88020A   26046.50796321  .00005037  00000+0  24789-3 0  9997
2 18958  82.5112 272.8599 0002633 286.4341  73.6603 15.17786603 46869
SL-3 R/B                
1 19046U 88032B   26046.47800594  .00007231  00000+0  33992-3 0  9997
2 19046  97.5152  29.8182 0024704 314.7960  45.1265 15.19622756 48737
SL-16 R/B               
1 19120U 88039B   26046.50270137  .00000182  00000+0  10861-3 0  9993
2 19120  71.0143 115.4657 0021392   7.9457 352.2002 14.19613048955234
COSMOS 1953             
1 19210U 88050A   26046.42976340  .00011878  00000+0  43178-3 0  9997
2 19210  82.5097 180.6208 0011011 197.8702 162.2152 15.28082114 34388
SL-8 R/B                
1 19257U 88053B   26046.48061772  .00000277  00000+0  98171-4 0  9996
2 19257  74.0485 153.4000 0020694 336.6075  98.2353 14.38902376973404
COSMOS 1975             
1 19573U 88093A   26046.32633789  .00011077  00000+0  40761-3 0  9998
2 19573  82.5225 140.1224 0010393 245.6564 114.3590 15.27684786 15994
SL-14 R/B               
1 19574U 88093B   26046.51292881  .00000557  00000+0  61170-4 0  9993
2 19574  82.5278  62.8674 0022251 110.1742   2.8015 14.85630450997749
SL-16 R/B               
1 19650U 88102B   26046.51363708  .00000179  00000+0  11459-3 0  9990
2 19650  70.9988 198.1533 0012751  37.3033 322.8973 14.16151240923754
INTERCOSMOS 24          
1 20261U 89080A   26046.32445818  .00000613  00000+0  17883-3 0  9998
2 20261  82.6057 118.9635 1187618 344.7686  12.0339 12.59525635663987
SL-14 R/B               
1 20262U 89080C   26046.39061721  .00000578  00000+0  17444-3 0  9996
2 20262  82.5955 187.4994 1229607 235.7316 112.1331 12.50465049657369
DELTA 1 R/B             
1 20323U 89089B   26046.47930923  .00000427  00000+0  11435-3 0  9998
2 20323  97.0721 257.4482 0068737 191.7028 168.2576 14.50644710892511
ARIANE 40 R/B           
1 20443U 90005H   26046.15931219  .00000245  00000+0  91657-4 0  9998
2 20443  98.3134 107.4864 0008877 272.1024  87.9148 14.39854924889563
